KUIPER-00008            
1 63724U 25088A   25319.52429720  .00012317  00000+0  99609-3 0  9995
2 63724  51.8904 247.4347 0011512  82.8911 277.3369 15.00071670 30930
KUIPER-00009            
1 63725U 25088B   25319.85464791  .00005223  00000+0  70607-3 0  9994
2 63725  51.9010 249.9335 0013428  81.7030 278.5454 14.80350577 30922
KUIPER-00010            
1 63726U 25088C   25320.45793543  .00005310  00000+0  71926-3 0  9995
2 63726  51.9014 223.7687 0012409 126.0841 234.1273 14.80240375 30963
KUIPER-00011            
1 63727U 25088D   25317.37911040  .00019879  00000+0  26498-2 0  9995
2 63727  51.9002 244.9825 0014643  90.8926 269.3714 14.79532602 30532
KUIPER-00012            
1 63728U 25088E   25320.50002315 -.02200018  00000+0 -22853+0 0  9990
2 63728  51.8916 214.6602 0009886 110.3421  79.1555 14.93478378  5205
KUIPER-00013            
1 63729U 25088F   25319.52131330 -.00008735  00000+0 -11171-2 0  9995
2 63729  51.8994 252.9331 0009164  17.6450 342.4829 14.79930949 30665
KUIPER-00014            
1 63730U 25088G   25319.78985280 -.00002401  00000+0 -28532-3 0  9990
2 63730  51.9037 252.7163 0010011  76.2056 284.0020 14.79948592 30503
KUIPER-00015            
1 63731U 25088H   25319.86501618  .00008820  00000+0  11349-2 0  9995
2 63731  51.8988 263.7381 0010913  63.0653 297.1424 14.81710394 30817
