<?xml version="1.0" encoding="UTF-8"?>
<ndm xmlns:xsi="http://www.w3.org/2001/XMLSchema-instance" xsi:noNamespaceSchemaLocation="https://sanaregistry.org/r/ndmxml_unqualified/ndmxml-2.0.0-master-2.0.xsd">
<omm id="CCSDS_OMM_VERS" version="2.0">
<header><CREATION_DATE/><ORIGINATOR/></header><body><segment><metadata><OBJECT_NAME>KUIPER-00008</OBJECT_NAME><OBJECT_ID>2025-088A</OBJECT_ID><CENTER_NAME>EARTH</CENTER_NAME><REF_FRAME>TEME</REF_FRAME><TIME_SYSTEM>UTC</TIME_SYSTEM><MEAN_ELEMENT_THEORY>SGP4</MEAN_ELEMENT_THEORY></metadata><data><meanElements><EPOCH>2025-11-15T12:34:59.278080</EPOCH><MEAN_MOTION>15.00071670</MEAN_MOTION><ECCENTRICITY>.0011512</ECCENTRICITY><INCLINATION>51.8904</INCLINATION><RA_OF_ASC_NODE>247.4347</RA_OF_ASC_NODE><ARG_OF_PERICENTER>82.8911</ARG_OF_PERICENTER><MEAN_ANOMALY>277.3369</MEAN_ANOMALY></meanElements><tleParameters><EPHEMERIS_TYPE>0</EPHEMERIS_TYPE><CLASSIFICATION_TYPE>U</CLASSIFICATION_TYPE><NORAD_CAT_ID>63724</NORAD_CAT_ID><ELEMENT_SET_NO>999</ELEMENT_SET_NO><REV_AT_EPOCH>3093</REV_AT_EPOCH><BSTAR>.99609E-3</BSTAR><MEAN_MOTION_DOT>.12317E-3</MEAN_MOTION_DOT><MEAN_MOTION_DDOT>0</MEAN_MOTION_DDOT></tleParameters></data></segment></body></omm>
<omm id="CCSDS_OMM_VERS" version="2.0">
<header><CREATION_DATE/><ORIGINATOR/></header><body><segment><metadata><OBJECT_NAME>KUIPER-00009</OBJECT_NAME><OBJECT_ID>2025-088B</OBJECT_ID><CENTER_NAME>EARTH</CENTER_NAME><REF_FRAME>TEME</REF_FRAME><TIME_SYSTEM>UTC</TIME_SYSTEM><MEAN_ELEMENT_THEORY>SGP4</MEAN_ELEMENT_THEORY></metadata><data><meanElements><EPOCH>2025-11-15T20:30:41.579424</EPOCH><MEAN_MOTION>14.80350577</MEAN_MOTION><ECCENTRICITY>.0013428</ECCENTRICITY><INCLINATION>51.9010</INCLINATION><RA_OF_ASC_NODE>249.9335</RA_OF_ASC_NODE><ARG_OF_PERICENTER>81.7030</ARG_OF_PERICENTER><MEAN_ANOMALY>278.5454</MEAN_ANOMALY></meanElements><tleParameters><EPHEMERIS_TYPE>0</EPHEMERIS_TYPE><CLASSIFICATION_TYPE>U</CLASSIFICATION_TYPE><NORAD_CAT_ID>63725</NORAD_CAT_ID><ELEMENT_SET_NO>999</ELEMENT_SET_NO><REV_AT_EPOCH>3092</REV_AT_EPOCH><BSTAR>.70607E-3</BSTAR><MEAN_MOTION_DOT>.5223E-4</MEAN_MOTION_DOT><MEAN_MOTION_DDOT>0</MEAN_MOTION_DDOT></tleParameters></data></segment></body></omm>
<omm id="CCSDS_OMM_VERS" version="2.0">
<header><CREATION_DATE/><ORIGINATOR/></header><body><segment><metadata><OBJECT_NAME>KUIPER-00010</OBJECT_NAME><OBJECT_ID>2025-088C</OBJECT_ID><CENTER_NAME>EARTH</CENTER_NAME><REF_FRAME>TEME</REF_FRAME><TIME_SYSTEM>UTC</TIME_SYSTEM><MEAN_ELEMENT_THEORY>SGP4</MEAN_ELEMENT_THEORY></metadata><data><meanElements><EPOCH>2025-11-16T10:59:25.621152</EPOCH><MEAN_MOTION>14.80240375</MEAN_MOTION><ECCENTRICITY>.0012409</ECCENTRICITY><INCLINATION>51.9014</INCLINATION><RA_OF_ASC_NODE>223.7687</RA_OF_ASC_NODE><ARG_OF_PERICENTER>126.0841</ARG_OF_PERICENTER><MEAN_ANOMALY>234.1273</MEAN_ANOMALY></meanElements><tleParameters><EPHEMERIS_TYPE>0</EPHEMERIS_TYPE><CLASSIFICATION_TYPE>U</CLASSIFICATION_TYPE><NORAD_CAT_ID>63726</NORAD_CAT_ID><ELEMENT_SET_NO>999</ELEMENT_SET_NO><REV_AT_EPOCH>3096</REV_AT_EPOCH><BSTAR>.71926E-3</BSTAR><MEAN_MOTION_DOT>.531E-4</MEAN_MOTION_DOT><MEAN_MOTION_DDOT>0</MEAN_MOTION_DDOT></tleParameters></data></segment></body></omm>
<omm id="CCSDS_OMM_VERS" version="2.0">
<header><CREATION_DATE/><ORIGINATOR/></header><body><segment><metadata><OBJECT_NAME>KUIPER-00011</OBJECT_NAME><OBJECT_ID>2025-088D</OBJECT_ID><CENTER_NAME>EARTH</CENTER_NAME><REF_FRAME>TEME</REF_FRAME><TIME_SYSTEM>UTC</TIME_SYSTEM><MEAN_ELEMENT_THEORY>SGP4</MEAN_ELEMENT_THEORY></metadata><data><meanElements><EPOCH>2025-11-13T09:05:55.138560</EPOCH><MEAN_MOTION>14.79532602</MEAN_MOTION><ECCENTRICITY>.00146432</ECCENTRICITY><INCLINATION>51.9002</INCLINATION><RA_OF_ASC_NODE>244.9825</RA_OF_ASC_NODE><ARG_OF_PERICENTER>90.8926</ARG_OF_PERICENTER><MEAN_ANOMALY>269.3714</MEAN_ANOMALY></meanElements><tleParameters><EPHEMERIS_TYPE>0</EPHEMERIS_TYPE><CLASSIFICATION_TYPE>U</CLASSIFICATION_TYPE><NORAD_CAT_ID>63727</NORAD_CAT_ID><ELEMENT_SET_NO>999</ELEMENT_SET_NO><REV_AT_EPOCH>3053</REV_AT_EPOCH><BSTAR>.264979E-2</BSTAR><MEAN_MOTION_DOT>.19879E-3</MEAN_MOTION_DOT><MEAN_MOTION_DDOT>0</MEAN_MOTION_DDOT></tleParameters></data></segment></body></omm>
<omm id="CCSDS_OMM_VERS" version="2.0">
<header><CREATION_DATE/><ORIGINATOR/></header><body><segment><metadata><OBJECT_NAME>KUIPER-00012</OBJECT_NAME><OBJECT_ID>2025-088E</OBJECT_ID><CENTER_NAME>EARTH</CENTER_NAME><REF_FRAME>TEME</REF_FRAME><TIME_SYSTEM>UTC</TIME_SYSTEM><MEAN_ELEMENT_THEORY>SGP4</MEAN_ELEMENT_THEORY></metadata><data><meanElements><EPOCH>2025-11-16T12:00:02.000160</EPOCH><MEAN_MOTION>14.93478378</MEAN_MOTION><ECCENTRICITY>.0009886</ECCENTRICITY><INCLINATION>51.8916</INCLINATION><RA_OF_ASC_NODE>214.6602</RA_OF_ASC_NODE><ARG_OF_PERICENTER>110.3421</ARG_OF_PERICENTER><MEAN_ANOMALY>79.1555</MEAN_ANOMALY></meanElements><tleParameters><EPHEMERIS_TYPE>0</EPHEMERIS_TYPE><CLASSIFICATION_TYPE>U</CLASSIFICATION_TYPE><NORAD_CAT_ID>63728</NORAD_CAT_ID><ELEMENT_SET_NO>999</ELEMENT_SET_NO><REV_AT_EPOCH>520</REV_AT_EPOCH><BSTAR>-.22853E+0</BSTAR><MEAN_MOTION_DOT>-.2200018E-1</MEAN_MOTION_DOT><MEAN_MOTION_DDOT>0</MEAN_MOTION_DDOT></tleParameters></data></segment></body></omm>
<omm id="CCSDS_OMM_VERS" version="2.0">
<header><CREATION_DATE/><ORIGINATOR/></header><body><segment><metadata><OBJECT_NAME>KUIPER-00013</OBJECT_NAME><OBJECT_ID>2025-088F</OBJECT_ID><CENTER_NAME>EARTH</CENTER_NAME><REF_FRAME>TEME</REF_FRAME><TIME_SYSTEM>UTC</TIME_SYSTEM><MEAN_ELEMENT_THEORY>SGP4</MEAN_ELEMENT_THEORY></metadata><data><meanElements><EPOCH>2025-11-15T12:30:41.469120</EPOCH><MEAN_MOTION>14.79930949</MEAN_MOTION><ECCENTRICITY>.0009164</ECCENTRICITY><INCLINATION>51.8994</INCLINATION><RA_OF_ASC_NODE>252.9331</RA_OF_ASC_NODE><ARG_OF_PERICENTER>17.6450</ARG_OF_PERICENTER><MEAN_ANOMALY>342.4829</MEAN_ANOMALY></meanElements><tleParameters><EPHEMERIS_TYPE>0</EPHEMERIS_TYPE><CLASSIFICATION_TYPE>U</CLASSIFICATION_TYPE><NORAD_CAT_ID>63729</NORAD_CAT_ID><ELEMENT_SET_NO>999</ELEMENT_SET_NO><REV_AT_EPOCH>3066</REV_AT_EPOCH><BSTAR>-.11171E-2</BSTAR><MEAN_MOTION_DOT>-.8735E-4</MEAN_MOTION_DOT><MEAN_MOTION_DDOT>0</MEAN_MOTION_DDOT></tleParameters></data></segment></body></omm>
<omm id="CCSDS_OMM_VERS" version="2.0">
<header><CREATION_DATE/><ORIGINATOR/></header><body><segment><metadata><OBJECT_NAME>KUIPER-00014</OBJECT_NAME><OBJECT_ID>2025-088G</OBJECT_ID><CENTER_NAME>EARTH</CENTER_NAME><REF_FRAME>TEME</REF_FRAME><TIME_SYSTEM>UTC</TIME_SYSTEM><MEAN_ELEMENT_THEORY>SGP4</MEAN_ELEMENT_THEORY></metadata><data><meanElements><EPOCH>2025-11-15T18:57:23.281920</EPOCH><MEAN_MOTION>14.79948592</MEAN_MOTION><ECCENTRICITY>.0010011</ECCENTRICITY><INCLINATION>51.9037</INCLINATION><RA_OF_ASC_NODE>252.7163</RA_OF_ASC_NODE><ARG_OF_PERICENTER>76.2056</ARG_OF_PERICENTER><MEAN_ANOMALY>284.0020</MEAN_ANOMALY></meanElements><tleParameters><EPHEMERIS_TYPE>0</EPHEMERIS_TYPE><CLASSIFICATION_TYPE>U</CLASSIFICATION_TYPE><NORAD_CAT_ID>63730</NORAD_CAT_ID><ELEMENT_SET_NO>999</ELEMENT_SET_NO><REV_AT_EPOCH>3050</REV_AT_EPOCH><BSTAR>-.28532E-3</BSTAR><MEAN_MOTION_DOT>-.2401E-4</MEAN_MOTION_DOT><MEAN_MOTION_DDOT>0</MEAN_MOTION_DDOT></tleParameters></data></segment></body></omm>
<omm id="CCSDS_OMM_VERS" version="2.0">
<header><CREATION_DATE/><ORIGINATOR/></header><body><segment><metadata><OBJECT_NAME>KUIPER-00015</OBJECT_NAME><OBJECT_ID>2025-088H</OBJECT_ID><CENTER_NAME>EARTH</CENTER_NAME><REF_FRAME>TEME</REF_FRAME><TIME_SYSTEM>UTC</TIME_SYSTEM><MEAN_ELEMENT_THEORY>SGP4</MEAN_ELEMENT_THEORY></metadata><data><meanElements><EPOCH>2025-11-15T20:45:37.397952</EPOCH><MEAN_MOTION>14.81710394</MEAN_MOTION><ECCENTRICITY>.0010913</ECCENTRICITY><INCLINATION>51.8988</INCLINATION><RA_OF_ASC_NODE>263.7381</RA_OF_ASC_NODE><ARG_OF_PERICENTER>63.0653</ARG_OF_PERICENTER><MEAN_ANOMALY>297.1424</MEAN_ANOMALY></meanElements><tleParameters><EPHEMERIS_TYPE>0</EPHEMERIS_TYPE><CLASSIFICATION_TYPE>U</CLASSIFICATION_TYPE><NORAD_CAT_ID>63731</NORAD_CAT_ID><ELEMENT_SET_NO>999</ELEMENT_SET_NO><REV_AT_EPOCH>3081</REV_AT_EPOCH><BSTAR>.11349E-2</BSTAR><MEAN_MOTION_DOT>.882E-4</MEAN_MOTION_DOT><MEAN_MOTION_DDOT>0</MEAN_MOTION_DDOT></tleParameters></data></segment></body></omm>

</ndm>
